ONEWEB-0446             
1 51640U 22012U   24361.15576926  .00000643  00000+0  18058-2 0  9996
2 51640  87.8907 143.4554 0001680 106.5744 253.5568 13.10375369138863
ONEWEB-0448             
1 51641U 22012V   24360.93166608  .00000724  00000+0  20368-2 0  9991
2 51641  87.8904 143.5000 0001470  96.8874 263.2420 13.10371802138807
ONEWEB-0449             
1 51642U 22012W   24361.16573119  .00000733  00000+0  20646-2 0  9996
2 51642  87.8897 143.4380 0001706  93.0819 267.0504 13.10372136138849
ONEWEB-0451             
1 51643U 22012X   24361.27700050 -.00000775  00000+0 -20284-2 0  9991
2 51643  87.9096 113.0076 0001750  98.3772 261.7558 13.17654643142828
ONEWEB-0452             
1 51644U 22012Y   24361.27532261  .00000060  00000+0  12187-3 0  9998
2 51644  87.9105 113.0593 0001710  90.7950 269.3378 13.17649707142834
ONEWEB-0456             
1 51646U 22012AA  24361.09932530  .00000283  00000+0  77540-3 0  9994
2 51646  87.8893 143.4167 0001319 104.2245 255.9029 13.10369403138874
ONEWEB-0457             
1 51647U 22012AB  24361.45787070  .00000314  00000+0  86348-3 0  9993
2 51647  87.8909 143.3848 0001901  95.4598 264.6746 13.10375380140223
ONEWEB-0458             
1 51648U 22012AC  24361.47945433  .00000464  00000+0  12917-2 0  9991
2 51648  87.8886 143.3879 0001433  95.1987 264.9304 13.10369755140188
